ONEWEB-0320             
1 49190U 21083E   26159.20875090  .00000024  00000+0  29132-4 0  9997
2 49190  87.9157 337.2498 0001811  91.5627 268.5713 13.18685292228794
ONEWEB-0321             
1 49191U 21083F   26158.88296540  .00000010  00000+0 -65366-5 0  9994
2 49191  87.9190 276.2894 0001702 104.8488 255.2834 13.20771597235608
ONEWEB-0322             
1 49192U 21083G   26159.16644209 -.00000267  00000+0 -76720-3 0  9995
2 49192  87.8946 322.0323 0001380  91.7307 268.3980 13.13469626229733
ONEWEB-0324             
1 49193U 21083H   26159.03001515  .00000015  00000+0  55012-5 0  9991
2 49193  87.9169 337.2716 0001886  97.0180 263.1167 13.18684223228797
ONEWEB-0325             
1 49194U 21083J   26158.95751892  .00000032  00000+0  48617-4 0  9993
2 49194  87.9160 337.2953 0001838  88.7039 271.4303 13.18685140228792
ONEWEB-0326             
1 49195U 21083K   26159.20046201 -.00000007  00000+0 -49533-4 0  9996
2 49195  87.9167 337.2439 0002071  86.2756 273.8613 13.18684679228817
ONEWEB-0327             
1 49196U 21083L   26159.20017949  .00000016  00000+0  73351-5 0  9998
2 49196  87.9159 337.2489 0002092  81.3035 278.8334 13.18687665228838
ONEWEB-0328             
1 49197U 21083M   26159.15628596 -.00000038  00000+0 -13921-3 0  9990
2 49197  87.8958 322.0069 0001877  98.6636 261.4706 13.13469025229711
ONEWEB-0331             
1 49198U 21083N   26159.04183444 -.00000070  00000+0 -20919-3 0  9998
2 49198  87.9168 337.2691 0002169  88.7313 271.4067 13.18685635228804
ONEWEB-0333             
1 49199U 21083P   26159.15120647  .00000088  00000+0  20539-3 0  9992
2 49199  87.8946 322.0351 0001796  92.3199 267.8136 13.13469158229724
ONEWEB-0334             
1 49200U 21083Q   26158.74911969  .00000108  00000+0  23456-3 0  9998
2 49200  87.9188 276.3281 0000998 107.2974 252.8269 13.20772694235547
ONEWEB-0335             
1 49201U 21083R   26159.14613561  .00000212  00000+0  54671-3 0  9990
2 49201  87.8948 322.0330 0002003  93.2859 266.8499 13.13469859229732
ONEWEB-0336             
1 49202U 21083S   26158.88881886  .00000127  00000+0  31326-3 0  9995
2 49202  87.8946 322.0802 0002258  95.7055 264.4332 13.13469873229693
ONEWEB-0337             
1 49203U 21083T   26159.20355415  .00000336  00000+0  88618-3 0  9995
2 49203  87.8944 322.0237 0001964  98.6167 261.5184 13.13469901229733
ONEWEB-0338             
1 49204U 21083U   26159.25331299  .00000036  00000+0  55827-4 0  9999
2 49204  87.9180 276.2301 0001632 101.6116 258.5200 13.20770823235637
ONEWEB-0339             
1 49205U 21083V   26159.21215201  .00000287  00000+0  75208-3 0  9992
2 49205  87.8945 322.0141 0001543  98.7091 261.4213 13.13469214229717
