[{"OBJECT_NAME":"ONEWEB-0320","OBJECT_ID":"2021-083E","EPOCH":"2026-06-08T05:00:36.077760","MEAN_MOTION":13.18685292,"ECCENTRICITY":0.0001811,"INCLINATION":87.9157,"RA_OF_ASC_NODE":337.2498,"ARG_OF_PERICENTER":91.5627,"MEAN_ANOMALY":268.5713,"EPHEMERIS_TYPE":0,"CLASSIFICATION_TYPE":"U","NORAD_CAT_ID":49190,"ELEMENT_SET_NO":999,"REV_AT_EPOCH":22879,"BSTAR":2.9132000000000005e-05,"MEAN_MOTION_DOT":2.4e-07,"MEAN_MOTION_DDOT":0.0},{"OBJECT_NAME":"ONEWEB-0321","OBJECT_ID":"2021-083F","EPOCH":"2026-06-07T21:11:28.210560","MEAN_MOTION":13.20771597,"ECCENTRICITY":0.0001702,"INCLINATION":87.919,"RA_OF_ASC_NODE":276.2894,"ARG_OF_PERICENTER":104.8488,"MEAN_ANOMALY":255.2834,"EPHEMERIS_TYPE":0,"CLASSIFICATION_TYPE":"U","NORAD_CAT_ID":49191,"ELEMENT_SET_NO":999,"REV_AT_EPOCH":23560,"BSTAR":-6.536600000000001e-06,"MEAN_MOTION_DOT":1e-07,"MEAN_MOTION_DDOT":0.0},{"OBJECT_NAME":"ONEWEB-0322","OBJECT_ID":"2021-083G","EPOCH":"2026-06-08T03:59:40.596576","MEAN_MOTION":13.13469626,"ECCENTRICITY":0.000138,"INCLINATION":87.8946,"RA_OF_ASC_NODE":322.0323,"ARG_OF_PERICENTER":91.7307,"MEAN_ANOMALY":268.398,"EPHEMERIS_TYPE":0,"CLASSIFICATION_TYPE":"U","NORAD_CAT_ID":49192,"ELEMENT_SET_NO":999,"REV_AT_EPOCH":22973,"BSTAR":-0.0007672,"MEAN_MOTION_DOT":-2.67e-06,"MEAN_MOTION_DDOT":0.0},{"OBJECT_NAME":"ONEWEB-0324","OBJECT_ID":"2021-083H","EPOCH":"2026-06-08T00:43:13.308960","MEAN_MOTION":13.18684223,"ECCENTRICITY":0.0001886,"INCLINATION":87.9169,"RA_OF_ASC_NODE":337.2716,"ARG_OF_PERICENTER":97.018,"MEAN_ANOMALY":263.1167,"EPHEMERIS_TYPE":0,"CLASSIFICATION_TYPE":"U","NORAD_CAT_ID":49193,"ELEMENT_SET_NO":999,"REV_AT_EPOCH":22879,"BSTAR":5.501200000000001e-06,"MEAN_MOTION_DOT":1.5e-07,"MEAN_MOTION_DDOT":0.0},{"OBJECT_NAME":"ONEWEB-0325","OBJECT_ID":"2021-083J","EPOCH":"2026-06-07T22:58:49.634688","MEAN_MOTION":13.1868514,"ECCENTRICITY":0.0001838,"INCLINATION":87.916,"RA_OF_ASC_NODE":337.2953,"ARG_OF_PERICENTER":88.7039,"MEAN_ANOMALY":271.4303,"EPHEMERIS_TYPE":0,"CLASSIFICATION_TYPE":"U","NORAD_CAT_ID":49194,"ELEMENT_SET_NO":999,"REV_AT_EPOCH":22879,"BSTAR":4.8617e-05,"MEAN_MOTION_DOT":3.2e-07,"MEAN_MOTION_DDOT":0.0},{"OBJECT_NAME":"ONEWEB-0326","OBJECT_ID":"2021-083K","EPOCH":"2026-06-08T04:48:39.917664","MEAN_MOTION":13.18684679,"ECCENTRICITY":0.0002071,"INCLINATION":87.9167,"RA_OF_ASC_NODE":337.2439,"ARG_OF_PERICENTER":86.2756,"MEAN_ANOMALY":273.8613,"EPHEMERIS_TYPE":0,"CLASSIFICATION_TYPE":"U","NORAD_CAT_ID":49195,"ELEMENT_SET_NO":999,"REV_AT_EPOCH":22881,"BSTAR":-4.9533e-05,"MEAN_MOTION_DOT":-7e-08,"MEAN_MOTION_DDOT":0.0},{"OBJECT_NAME":"ONEWEB-0327","OBJECT_ID":"2021-083L","EPOCH":"2026-06-08T04:48:15.507936","MEAN_MOTION":13.18687665,"ECCENTRICITY":0.0002092,"INCLINATION":87.9159,"RA_OF_ASC_NODE":337.2489,"ARG_OF_PERICENTER":81.3035,"MEAN_ANOMALY":278.8334,"EPHEMERIS_TYPE":0,"CLASSIFICATION_TYPE":"U","NORAD_CAT_ID":49196,"ELEMENT_SET_NO":999,"REV_AT_EPOCH":22883,"BSTAR":7.3351e-06,"MEAN_MOTION_DOT":1.6e-07,"MEAN_MOTION_DDOT":0.0},{"OBJECT_NAME":"ONEWEB-0328","OBJECT_ID":"2021-083M","EPOCH":"2026-06-08T03:45:03.106944","MEAN_MOTION":13.13469025,"ECCENTRICITY":0.0001877,"INCLINATION":87.8958,"RA_OF_ASC_NODE":322.0069,"ARG_OF_PERICENTER":98.6636,"MEAN_ANOMALY":261.4706,"EPHEMERIS_TYPE":0,"CLASSIFICATION_TYPE":"U","NORAD_CAT_ID":49197,"ELEMENT_SET_NO":999,"REV_AT_EPOCH":22971,"BSTAR":-0.00013921,"MEAN_MOTION_DOT":-3.8e-07,"MEAN_MOTION_DDOT":0.0},{"OBJECT_NAME":"ONEWEB-0331","OBJECT_ID":"2021-083N","EPOCH":"2026-06-08T01:00:14.495616","MEAN_MOTION":13.18685635,"ECCENTRICITY":0.0002169,"INCLINATION":87.9168,"RA_OF_ASC_NODE":337.2691,"ARG_OF_PERICENTER":88.7313,"MEAN_ANOMALY":271.4067,"EPHEMERIS_TYPE":0,"CLASSIFICATION_TYPE":"U","NORAD_CAT_ID":49198,"ELEMENT_SET_NO":999,"REV_AT_EPOCH":22880,"BSTAR":-0.00020919,"MEAN_MOTION_DOT":-7e-07,"MEAN_MOTION_DDOT":0.0},{"OBJECT_NAME":"ONEWEB-0333","OBJECT_ID":"2021-083P","EPOCH":"2026-06-08T03:37:44.239008","MEAN_MOTION":13.13469158,"ECCENTRICITY":0.0001796,"INCLINATION":87.8946,"RA_OF_ASC_NODE":322.0351,"ARG_OF_PERICENTER":92.3199,"MEAN_ANOMALY":267.8136,"EPHEMERIS_TYPE":0,"CLASSIFICATION_TYPE":"U","NORAD_CAT_ID":49199,"ELEMENT_SET_NO":999,"REV_AT_EPOCH":22972,"BSTAR":0.00020538999999999998,"MEAN_MOTION_DOT":8.8e-07,"MEAN_MOTION_DDOT":0.0},{"OBJECT_NAME":"ONEWEB-0334","OBJECT_ID":"2021-083Q","EPOCH":"2026-06-07T17:58:43.941216","MEAN_MOTION":13.20772694,"ECCENTRICITY":9.98e-05,"INCLINATION":87.9188,"RA_OF_ASC_NODE":276.3281,"ARG_OF_PERICENTER":107.2974,"MEAN_ANOMALY":252.8269,"EPHEMERIS_TYPE":0,"CLASSIFICATION_TYPE":"U","NORAD_CAT_ID":49200,"ELEMENT_SET_NO":999,"REV_AT_EPOCH":23554,"BSTAR":0.00023456,"MEAN_MOTION_DOT":1.08e-06,"MEAN_MOTION_DDOT":0.0},{"OBJECT_NAME":"ONEWEB-0335","OBJECT_ID":"2021-083R","EPOCH":"2026-06-08T03:30:26.116704","MEAN_MOTION":13.13469859,"ECCENTRICITY":0.0002003,"INCLINATION":87.8948,"RA_OF_ASC_NODE":322.033,"ARG_OF_PERICENTER":93.2859,"MEAN_ANOMALY":266.8499,"EPHEMERIS_TYPE":0,"CLASSIFICATION_TYPE":"U","NORAD_CAT_ID":49201,"ELEMENT_SET_NO":999,"REV_AT_EPOCH":22973,"BSTAR":0.0005467100000000001,"MEAN_MOTION_DOT":2.12e-06,"MEAN_MOTION_DDOT":0.0},{"OBJECT_NAME":"ONEWEB-0336","OBJECT_ID":"2021-083S","EPOCH":"2026-06-07T21:19:53.949504","MEAN_MOTION":13.13469873,"ECCENTRICITY":0.0002258,"INCLINATION":87.8946,"RA_OF_ASC_NODE":322.0802,"ARG_OF_PERICENTER":95.7055,"MEAN_ANOMALY":264.4332,"EPHEMERIS_TYPE":0,"CLASSIFICATION_TYPE":"U","NORAD_CAT_ID":49202,"ELEMENT_SET_NO":999,"REV_AT_EPOCH":22969,"BSTAR":0.00031326,"MEAN_MOTION_DOT":1.27e-06,"MEAN_MOTION_DDOT":0.0},{"OBJECT_NAME":"ONEWEB-0337","OBJECT_ID":"2021-083T","EPOCH":"2026-06-08T04:53:07.078560","MEAN_MOTION":13.13469901,"ECCENTRICITY":0.0001964,"INCLINATION":87.8944,"RA_OF_ASC_NODE":322.0237,"ARG_OF_PERICENTER":98.6167,"MEAN_ANOMALY":261.5184,"EPHEMERIS_TYPE":0,"CLASSIFICATION_TYPE":"U","NORAD_CAT_ID":49203,"ELEMENT_SET_NO":999,"REV_AT_EPOCH":22973,"BSTAR":0.00088618,"MEAN_MOTION_DOT":3.36e-06,"MEAN_MOTION_DDOT":0.0},{"OBJECT_NAME":"ONEWEB-0338","OBJECT_ID":"2021-083U","EPOCH":"2026-06-08T06:04:46.242336","MEAN_MOTION":13.20770823,"ECCENTRICITY":0.0001632,"INCLINATION":87.918,"RA_OF_ASC_NODE":276.2301,"ARG_OF_PERICENTER":101.6116,"MEAN_ANOMALY":258.52,"EPHEMERIS_TYPE":0,"CLASSIFICATION_TYPE":"U","NORAD_CAT_ID":49204,"ELEMENT_SET_NO":999,"REV_AT_EPOCH":23563,"BSTAR":5.5827000000000006e-05,"MEAN_MOTION_DOT":3.6e-07,"MEAN_MOTION_DDOT":0.0},{"OBJECT_NAME":"ONEWEB-0339","OBJECT_ID":"2021-083V","EPOCH":"2026-06-08T05:05:29.933664","MEAN_MOTION":13.13469214,"ECCENTRICITY":0.0001543,"INCLINATION":87.8945,"RA_OF_ASC_NODE":322.0141,"ARG_OF_PERICENTER":98.7091,"MEAN_ANOMALY":261.4213,"EPHEMERIS_TYPE":0,"CLASSIFICATION_TYPE":"U","NORAD_CAT_ID":49205,"ELEMENT_SET_NO":999,"REV_AT_EPOCH":22971,"BSTAR":0.00075208,"MEAN_MOTION_DOT":2.87e-06,"MEAN_MOTION_DDOT":0.0}]